[{"OBJECT_NAME":"STARLINK-30084","OBJECT_ID":"2023-079C","EPOCH":"2026-03-09T22:00:01.999584","MEAN_MOTION":15.23505566,"ECCENTRICITY":0.00011469,"INCLINATION":43.0023,"RA_OF_ASC_NODE":104.9996,"ARG_OF_PERICENTER":274.1304,"MEAN_ANOMALY":27.2312,"EPHEMERIS_TYPE":0,"CLASSIFICATION_TYPE":"U","NORAD_CAT_ID":56825,"ELEMENT_SET_NO":999,"REV_AT_EPOCH":578,"BSTAR":0.031721463,"MEAN_MOTION_DOT":0.00827712,"MEAN_MOTION_DDOT":0},{"OBJECT_NAME":"OBJECT A","OBJECT_ID":"2024-153A","EPOCH":"2026-03-09T23:23:00.048768","MEAN_MOTION":15.38255179,"ECCENTRICITY":0.0008915,"INCLINATION":97.6577,"RA_OF_ASC_NODE":205.6534,"ARG_OF_PERICENTER":134.2023,"MEAN_ANOMALY":225.9955,"EPHEMERIS_TYPE":0,"CLASSIFICATION_TYPE":"U","NORAD_CAT_ID":60745,"ELEMENT_SET_NO":999,"REV_AT_EPOCH":8481,"BSTAR":0.0015987214,"MEAN_MOTION_DOT":0.00060651,"MEAN_MOTION_DDOT":0}]
